[{"OBJECT_NAME":"STARLINK-4790","OBJECT_ID":"2022-114AT","EPOCH":"2026-03-09T20:50:20.095296","MEAN_MOTION":15.08839785,"ECCENTRICITY":0.00013972,"INCLINATION":53.2173,"RA_OF_ASC_NODE":287.9796,"ARG_OF_PERICENTER":79.9977,"MEAN_ANOMALY":280.1173,"EPHEMERIS_TYPE":0,"CLASSIFICATION_TYPE":"U","NORAD_CAT_ID":53859,"ELEMENT_SET_NO":999,"REV_AT_EPOCH":19307,"BSTAR":3.6957879e-5,"MEAN_MOTION_DOT":3.0e-6,"MEAN_MOTION_DDOT":0},{"OBJECT_NAME":"CZ-11 R\/B","OBJECT_ID":"2018-008G","EPOCH":"2026-03-09T21:32:14.586720","MEAN_MOTION":14.3224485,"ECCENTRICITY":0.03634479,"INCLINATION":98.2374,"RA_OF_ASC_NODE":58.5812,"ARG_OF_PERICENTER":26.4919,"MEAN_ANOMALY":335.4347,"EPHEMERIS_TYPE":0,"CLASSIFICATION_TYPE":"U","NORAD_CAT_ID":43161,"ELEMENT_SET_NO":999,"REV_AT_EPOCH":42445,"BSTAR":0.00036976397,"MEAN_MOTION_DOT":2.03e-5,"MEAN_MOTION_DDOT":0}]
